{"type":"FeatureCollection","snapshot":"2026-01-15T15:00:00Z","synthetic":true,"sources":"Stations: Natural Earth 1:50m populated places v5.1.0 (public domain). Weather: synthetic, from generate-stations.mjs; not observations.","units":{"temperature":"°C","wind_speed":"km/h","wind_direction":"degrees, direction the wind blows from","cloud_cover":"%","precipitation":"mm/h"},"features":[
{"type":"Feature","id":1,"geometry":{"type":"Point","coordinates":[139.749,35.687]},"properties":{"name":"Tokyo","country":"JP","condition":"partly-cloudy","is_day":false,"temperature":-3,"wind_speed":26,"wind_direction":180,"cloud_cover":45,"precipitation":0}},
{"type":"Feature","id":2,"geometry":{"type":"Point","coordinates":[-99.133,19.444]},"properties":{"name":"Mexico City","country":"MX","condition":"fog","is_day":true,"temperature":8,"wind_speed":19,"wind_direction":330,"cloud_cover":100,"precipitation":0}},
{"type":"Feature","id":3,"geometry":{"type":"Point","coordinates":[90.407,23.725]},"properties":{"name":"Dhaka","country":"BD","condition":"clear","is_day":false,"temperature":15,"wind_speed":2,"wind_direction":320,"cloud_cover":0,"precipitation":0}},
{"type":"Feature","id":4,"geometry":{"type":"Point","coordinates":[-58.433,-34.611]},"properties":{"name":"Buenos Aires","country":"AR","condition":"partly-cloudy","is_day":true,"temperature":21,"wind_speed":20,"wind_direction":260,"cloud_cover":45,"precipitation":0}},
{"type":"Feature","id":5,"geometry":{"type":"Point","coordinates":[31.248,30.052]},"properties":{"name":"Cairo","country":"EG","condition":"clear","is_day":true,"temperature":17,"wind_speed":17,"wind_direction":290,"cloud_cover":0,"precipitation":0}},
{"type":"Feature","id":6,"geometry":{"type":"Point","coordinates":[116.394,39.902]},"properties":{"name":"Beijing","country":"CN","condition":"clear","is_day":false,"temperature":4,"wind_speed":0,"wind_direction":80,"cloud_cover":0,"precipitation":0}},
{"type":"Feature","id":7,"geometry":{"type":"Point","coordinates":[120.98,14.606]},"properties":{"name":"Manila","country":"PH","condition":"partly-cloudy","is_day":false,"temperature":23,"wind_speed":15,"wind_direction":280,"cloud_cover":36,"precipitation":0}},
{"type":"Feature","id":8,"geometry":{"type":"Point","coordinates":[37.614,55.754]},"properties":{"name":"Moscow","country":"RU","condition":"wind","is_day":false,"temperature":1,"wind_speed":41,"wind_direction":90,"cloud_cover":33,"precipitation":0}},
{"type":"Feature","id":9,"geometry":{"type":"Point","coordinates":[2.353,48.858]},"properties":{"name":"Paris","country":"FR","condition":"rain","is_day":true,"temperature":5,"wind_speed":40,"wind_direction":50,"cloud_cover":100,"precipitation":11}},
{"type":"Feature","id":10,"geometry":{"type":"Point","coordinates":[126.998,37.568]},"properties":{"name":"Seoul","country":"KR","condition":"partly-cloudy","is_day":false,"temperature":3,"wind_speed":5,"wind_direction":170,"cloud_cover":39,"precipitation":0}},
{"type":"Feature","id":11,"geometry":{"type":"Point","coordinates":[106.827,-6.172]},"properties":{"name":"Jakarta","country":"ID","condition":"thunderstorm","is_day":false,"temperature":26,"wind_speed":4,"wind_direction":230,"cloud_cover":97,"precipitation":12.2}},
{"type":"Feature","id":12,"geometry":{"type":"Point","coordinates":[-77.052,-12.046]},"properties":{"name":"Lima","country":"PE","condition":"partly-cloudy","is_day":true,"temperature":32,"wind_speed":3,"wind_direction":20,"cloud_cover":57,"precipitation":0}},
{"type":"Feature","id":13,"geometry":{"type":"Point","coordinates":[51.422,35.674]},"properties":{"name":"Tehran","country":"IR","condition":"partly-cloudy","is_day":false,"temperature":4,"wind_speed":20,"wind_direction":230,"cloud_cover":45,"precipitation":0}},
{"type":"Feature","id":14,"geometry":{"type":"Point","coordinates":[15.313,-4.328]},"properties":{"name":"Kinshasa","country":"CD","condition":"thunderstorm","is_day":true,"temperature":28,"wind_speed":24,"wind_direction":350,"cloud_cover":91,"precipitation":15.4}},
{"type":"Feature","id":15,"geometry":{"type":"Point","coordinates":[-74.085,4.598]},"properties":{"name":"Bogota","country":"CO","condition":"partly-cloudy","is_day":true,"temperature":9,"wind_speed":15,"wind_direction":300,"cloud_cover":42,"precipitation":0}},
{"type":"Feature","id":16,"geometry":{"type":"Point","coordinates":[121.568,25.036]},"properties":{"name":"Taipei","country":"TW","condition":"clear","is_day":false,"temperature":13,"wind_speed":3,"wind_direction":270,"cloud_cover":27,"precipitation":0}},
{"type":"Feature","id":17,"geometry":{"type":"Point","coordinates":[100.515,13.752]},"properties":{"name":"Bangkok","country":"TH","condition":"clear","is_day":false,"temperature":23,"wind_speed":4,"wind_direction":20,"cloud_cover":12,"precipitation":0}},
{"type":"Feature","id":18,"geometry":{"type":"Point","coordinates":[-70.651,-33.44]},"properties":{"name":"Santiago","country":"CL","condition":"partly-cloudy","is_day":true,"temperature":18,"wind_speed":10,"wind_direction":280,"cloud_cover":40,"precipitation":0}},
{"type":"Feature","id":19,"geometry":{"type":"Point","coordinates":[-3.685,40.402]},"properties":{"name":"Madrid","country":"ES","condition":"drizzle","is_day":true,"temperature":13,"wind_speed":18,"wind_direction":290,"cloud_cover":99,"precipitation":0.2}},
{"type":"Feature","id":20,"geometry":{"type":"Point","coordinates":[103.854,1.295]},"properties":{"name":"Singapore","country":"SG","condition":"thunderstorm","is_day":false,"temperature":23,"wind_speed":10,"wind_direction":50,"cloud_cover":81,"precipitation":18.6}},
{"type":"Feature","id":21,"geometry":{"type":"Point","coordinates":[13.232,-8.836]},"properties":{"name":"Luanda","country":"AO","condition":"thunderstorm","is_day":true,"temperature":26,"wind_speed":21,"wind_direction":10,"cloud_cover":93,"precipitation":16.6}},
{"type":"Feature","id":22,"geometry":{"type":"Point","coordinates":[44.392,33.341]},"properties":{"name":"Baghdad","country":"IQ","condition":"clear","is_day":false,"temperature":15,"wind_speed":22,"wind_direction":230,"cloud_cover":0,"precipitation":0}},
{"type":"Feature","id":23,"geometry":{"type":"Point","coordinates":[-73.996,40.722]},"properties":{"name":"New York","country":"US","condition":"overcast","is_day":true,"temperature":3,"wind_speed":25,"wind_direction":230,"cloud_cover":100,"precipitation":0}},
{"type":"Feature","id":24,"geometry":{"type":"Point","coordinates":[32.532,15.59]},"properties":{"name":"Khartoum","country":"SD","condition":"clear","is_day":true,"temperature":33,"wind_speed":8,"wind_direction":60,"cloud_cover":0,"precipitation":0}},
{"type":"Feature","id":25,"geometry":{"type":"Point","coordinates":[72.876,19.068]},"properties":{"name":"Mumbai","country":"IN","condition":"partly-cloudy","is_day":false,"temperature":20,"wind_speed":11,"wind_direction":150,"cloud_cover":36,"precipitation":0}},
{"type":"Feature","id":26,"geometry":{"type":"Point","coordinates":[-46.627,-23.557]},"properties":{"name":"São Paulo","country":"BR","condition":"clear","is_day":true,"temperature":31,"wind_speed":8,"wind_direction":190,"cloud_cover":9,"precipitation":0}},
{"type":"Feature","id":27,"geometry":{"type":"Point","coordinates":[46.72,24.634]},"properties":{"name":"Riyadh","country":"SA","condition":"clear","is_day":false,"temperature":23,"wind_speed":7,"wind_direction":200,"cloud_cover":0,"precipitation":0}},
{"type":"Feature","id":28,"geometry":{"type":"Point","coordinates":[105.848,21.035]},"properties":{"name":"Hanoi","country":"VN","condition":"partly-cloudy","is_day":false,"temperature":18,"wind_speed":13,"wind_direction":340,"cloud_cover":38,"precipitation":0}},
{"type":"Feature","id":29,"geometry":{"type":"Point","coordinates":[77.228,28.672]},"properties":{"name":"Delhi","country":"IN","condition":"clear","is_day":false,"temperature":9,"wind_speed":0,"wind_direction":290,"cloud_cover":18,"precipitation":0}},
{"type":"Feature","id":30,"geometry":{"type":"Point","coordinates":[-4.02,5.323]},"properties":{"name":"Abidjan","country":"CI","condition":"partly-cloudy","is_day":true,"temperature":28,"wind_speed":13,"wind_direction":80,"cloud_cover":43,"precipitation":0}},
{"type":"Feature","id":31,"geometry":{"type":"Point","coordinates":[121.435,31.218]},"properties":{"name":"Shanghai","country":"CN","condition":"clear","is_day":false,"temperature":9,"wind_speed":0,"wind_direction":230,"cloud_cover":11,"precipitation":0}},
{"type":"Feature","id":32,"geometry":{"type":"Point","coordinates":[-47.918,-15.781]},"properties":{"name":"Brasília","country":"BR","condition":"partly-cloudy","is_day":true,"temperature":34,"wind_speed":11,"wind_direction":170,"cloud_cover":46,"precipitation":0}},
{"type":"Feature","id":33,"geometry":{"type":"Point","coordinates":[32.862,39.929]},"properties":{"name":"Ankara","country":"TR","condition":"clear","is_day":false,"temperature":8,"wind_speed":19,"wind_direction":280,"cloud_cover":30,"precipitation":0}},
{"type":"Feature","id":34,"geometry":{"type":"Point","coordinates":[13.4,52.524]},"properties":{"name":"Berlin","country":"DE","condition":"sleet","is_day":true,"temperature":1,"wind_speed":42,"wind_direction":60,"cloud_cover":100,"precipitation":2.2}},
{"type":"Feature","id":35,"geometry":{"type":"Point","coordinates":[3.049,36.765]},"properties":{"name":"Algiers","country":"DZ","condition":"overcast","is_day":true,"temperature":9,"wind_speed":16,"wind_direction":270,"cloud_cover":95,"precipitation":0}},
{"type":"Feature","id":36,"geometry":{"type":"Point","coordinates":[12.481,41.898]},"properties":{"name":"Rome","country":"IT","condition":"rain","is_day":true,"temperature":7,"wind_speed":21,"wind_direction":310,"cloud_cover":100,"precipitation":5.5}},
{"type":"Feature","id":37,"geometry":{"type":"Point","coordinates":[69.181,34.519]},"properties":{"name":"Kabul","country":"AF","condition":"partly-cloudy","is_day":false,"temperature":-5,"wind_speed":4,"wind_direction":260,"cloud_cover":63,"precipitation":0}},
{"type":"Feature","id":38,"geometry":{"type":"Point","coordinates":[23.731,37.985]},"properties":{"name":"Athens","country":"GR","condition":"partly-cloudy","is_day":true,"temperature":8,"wind_speed":7,"wind_direction":310,"cloud_cover":50,"precipitation":0}},
{"type":"Feature","id":39,"geometry":{"type":"Point","coordinates":[18.433,-33.918]},"properties":{"name":"Cape Town","country":"ZA","condition":"clear","is_day":true,"temperature":31,"wind_speed":24,"wind_direction":310,"cloud_cover":26,"precipitation":0}},
{"type":"Feature","id":40,"geometry":{"type":"Point","coordinates":[-118.232,34.049]},"properties":{"name":"Los Angeles","country":"US","condition":"rain","is_day":true,"temperature":9,"wind_speed":20,"wind_direction":300,"cloud_cover":82,"precipitation":3.4}},
{"type":"Feature","id":41,"geometry":{"type":"Point","coordinates":[38.698,9.035]},"properties":{"name":"Addis Ababa","country":"ET","condition":"clear","is_day":true,"temperature":18,"wind_speed":12,"wind_direction":100,"cloud_cover":0,"precipitation":0}},
{"type":"Feature","id":42,"geometry":{"type":"Point","coordinates":[66.988,24.872]},"properties":{"name":"Karachi","country":"PK","condition":"clear","is_day":false,"temperature":15,"wind_speed":6,"wind_direction":210,"cloud_cover":17,"precipitation":0}},
{"type":"Feature","id":43,"geometry":{"type":"Point","coordinates":[36.815,-1.281]},"properties":{"name":"Nairobi","country":"KE","condition":"clear","is_day":true,"temperature":19,"wind_speed":23,"wind_direction":160,"cloud_cover":6,"precipitation":0}},
{"type":"Feature","id":44,"geometry":{"type":"Point","coordinates":[-66.919,10.503]},"properties":{"name":"Caracas","country":"VE","condition":"partly-cloudy","is_day":true,"temperature":25,"wind_speed":25,"wind_direction":320,"cloud_cover":48,"precipitation":0}},
{"type":"Feature","id":45,"geometry":{"type":"Point","coordinates":[39.266,-6.798]},"properties":{"name":"Dar es Salaam","country":"TZ","condition":"drizzle","is_day":true,"temperature":27,"wind_speed":23,"wind_direction":110,"cloud_cover":80,"precipitation":0.1}},
{"type":"Feature","id":46,"geometry":{"type":"Point","coordinates":[-9.147,38.725]},"properties":{"name":"Lisbon","country":"PT","condition":"partly-cloudy","is_day":true,"temperature":8,"wind_speed":7,"wind_direction":310,"cloud_cover":78,"precipitation":0}},
{"type":"Feature","id":47,"geometry":{"type":"Point","coordinates":[30.515,50.435]},"properties":{"name":"Kyiv","country":"UA","condition":"partly-cloudy","is_day":false,"temperature":2,"wind_speed":32,"wind_direction":70,"cloud_cover":44,"precipitation":0}},
{"type":"Feature","id":48,"geometry":{"type":"Point","coordinates":[-17.475,14.718]},"properties":{"name":"Dakar","country":"SN","condition":"clear","is_day":true,"temperature":27,"wind_speed":11,"wind_direction":10,"cloud_cover":1,"precipitation":0}},
{"type":"Feature","id":49,"geometry":{"type":"Point","coordinates":[36.298,33.502]},"properties":{"name":"Damascus","country":"SY","condition":"clear","is_day":false,"temperature":14,"wind_speed":22,"wind_direction":260,"cloud_cover":0,"precipitation":0}},
{"type":"Feature","id":50,"geometry":{"type":"Point","coordinates":[10.18,36.803]},"properties":{"name":"Tunis","country":"TN","condition":"overcast","is_day":true,"temperature":8,"wind_speed":9,"wind_direction":290,"cloud_cover":93,"precipitation":0}},
{"type":"Feature","id":51,"geometry":{"type":"Point","coordinates":[16.365,48.202]},"properties":{"name":"Vienna","country":"AT","condition":"sleet","is_day":true,"temperature":2,"wind_speed":33,"wind_direction":30,"cloud_cover":100,"precipitation":2}},
{"type":"Feature","id":52,"geometry":{"type":"Point","coordinates":[3.39,6.445]},"properties":{"name":"Lagos","country":"NG","condition":"clear","is_day":true,"temperature":32,"wind_speed":19,"wind_direction":100,"cloud_cover":28,"precipitation":0}},
{"type":"Feature","id":53,"geometry":{"type":"Point","coordinates":[-87.635,41.848]},"properties":{"name":"Chicago","country":"US","condition":"overcast","is_day":true,"temperature":0,"wind_speed":25,"wind_direction":310,"cloud_cover":100,"precipitation":0}},
{"type":"Feature","id":54,"geometry":{"type":"Point","coordinates":[113.262,23.125]},"properties":{"name":"Guangzhou","country":"CN","condition":"partly-cloudy","is_day":false,"temperature":19,"wind_speed":8,"wind_direction":330,"cloud_cover":36,"precipitation":0}},
{"type":"Feature","id":55,"geometry":{"type":"Point","coordinates":[13.18,32.893]},"properties":{"name":"Tripoli","country":"LY","condition":"clear","is_day":true,"temperature":14,"wind_speed":1,"wind_direction":290,"cloud_cover":25,"precipitation":0}},
{"type":"Feature","id":56,"geometry":{"type":"Point","coordinates":[69.269,41.304]},"properties":{"name":"Tashkent","country":"UZ","condition":"overcast","is_day":false,"temperature":3,"wind_speed":12,"wind_direction":250,"cloud_cover":82,"precipitation":0}},
{"type":"Feature","id":57,"geometry":{"type":"Point","coordinates":[-82.366,23.134]},"properties":{"name":"Havana","country":"CU","condition":"clear","is_day":true,"temperature":21,"wind_speed":24,"wind_direction":300,"cloud_cover":9,"precipitation":0}},
{"type":"Feature","id":58,"geometry":{"type":"Point","coordinates":[-69.93,18.471]},"properties":{"name":"Santo Domingo","country":"DO","condition":"partly-cloudy","is_day":true,"temperature":24,"wind_speed":22,"wind_direction":320,"cloud_cover":46,"precipitation":0}},
{"type":"Feature","id":59,"geometry":{"type":"Point","coordinates":[49.86,40.397]},"properties":{"name":"Baku","country":"AZ","condition":"rain","is_day":false,"temperature":6,"wind_speed":33,"wind_direction":230,"cloud_cover":80,"precipitation":2.4}},
{"type":"Feature","id":60,"geometry":{"type":"Point","coordinates":[47.976,29.372]},"properties":{"name":"Kuwait City","country":"KW","condition":"clear","is_day":false,"temperature":19,"wind_speed":15,"wind_direction":220,"cloud_cover":0,"precipitation":0}},
{"type":"Feature","id":61,"geometry":{"type":"Point","coordinates":[44.205,15.357]},"properties":{"name":"Sanaa","country":"YE","condition":"clear","is_day":false,"temperature":18,"wind_speed":3,"wind_direction":130,"cloud_cover":0,"precipitation":0}},
{"type":"Feature","id":62,"geometry":{"type":"Point","coordinates":[26.098,44.435]},"properties":{"name":"Bucharest","country":"RO","condition":"partly-cloudy","is_day":false,"temperature":4,"wind_speed":18,"wind_direction":350,"cloud_cover":59,"precipitation":0}},
{"type":"Feature","id":63,"geometry":{"type":"Point","coordinates":[-57.626,-25.291]},"properties":{"name":"Asunción","country":"PY","condition":"clear","is_day":true,"temperature":27,"wind_speed":17,"wind_direction":230,"cloud_cover":23,"precipitation":0}},
{"type":"Feature","id":64,"geometry":{"type":"Point","coordinates":[114.268,30.582]},"properties":{"name":"Wuhan","country":"CN","condition":"clear","is_day":false,"temperature":10,"wind_speed":0,"wind_direction":320,"cloud_cover":7,"precipitation":0}},
{"type":"Feature","id":65,"geometry":{"type":"Point","coordinates":[80.278,13.092]},"properties":{"name":"Chennai","country":"IN","condition":"partly-cloudy","is_day":false,"temperature":27,"wind_speed":14,"wind_direction":110,"cloud_cover":60,"precipitation":0}},
{"type":"Feature","id":66,"geometry":{"type":"Point","coordinates":[21.005,52.231]},"properties":{"name":"Warsaw","country":"PL","condition":"wind","is_day":false,"temperature":1,"wind_speed":36,"wind_direction":60,"cloud_cover":73,"precipitation":0}},
{"type":"Feature","id":67,"geometry":{"type":"Point","coordinates":[-6.836,34.025]},"properties":{"name":"Rabat","country":"MA","condition":"partly-cloudy","is_day":true,"temperature":10,"wind_speed":12,"wind_direction":280,"cloud_cover":73,"precipitation":0}},
{"type":"Feature","id":68,"geometry":{"type":"Point","coordinates":[-78.502,-0.213]},"properties":{"name":"Quito","country":"EC","condition":"partly-cloudy","is_day":true,"temperature":9,"wind_speed":7,"wind_direction":60,"cloud_cover":79,"precipitation":0}},
{"type":"Feature","id":69,"geometry":{"type":"Point","coordinates":[47.515,-18.915]},"properties":{"name":"Antananarivo","country":"MG","condition":"drizzle","is_day":true,"temperature":17,"wind_speed":9,"wind_direction":30,"cloud_cover":88,"precipitation":0.2}},
{"type":"Feature","id":70,"geometry":{"type":"Point","coordinates":[106.593,29.567]},"properties":{"name":"Chongqing","country":"CN","condition":"clear","is_day":false,"temperature":9,"wind_speed":13,"wind_direction":320,"cloud_cover":30,"precipitation":0}},
{"type":"Feature","id":71,"geometry":{"type":"Point","coordinates":[11.515,3.869]},"properties":{"name":"Yaoundé","country":"CM","condition":"partly-cloudy","is_day":true,"temperature":33,"wind_speed":15,"wind_direction":90,"cloud_cover":46,"precipitation":0}},
{"type":"Feature","id":72,"geometry":{"type":"Point","coordinates":[78.478,17.402]},"properties":{"name":"Hyderabad","country":"IN","condition":"partly-cloudy","is_day":false,"temperature":22,"wind_speed":8,"wind_direction":140,"cloud_cover":53,"precipitation":0}},
{"type":"Feature","id":73,"geometry":{"type":"Point","coordinates":[-68.152,-16.496]},"properties":{"name":"La Paz","country":"BO","condition":"partly-cloudy","is_day":true,"temperature":5,"wind_speed":14,"wind_direction":10,"cloud_cover":55,"precipitation":0}},
{"type":"Feature","id":74,"geometry":{"type":"Point","coordinates":[7.49,9.055]},"properties":{"name":"Abuja","country":"NG","condition":"clear","is_day":true,"temperature":33,"wind_speed":18,"wind_direction":90,"cloud_cover":30,"precipitation":0}},
{"type":"Feature","id":75,"geometry":{"type":"Point","coordinates":[31.043,-17.816]},"properties":{"name":"Harare","country":"ZW","condition":"partly-cloudy","is_day":true,"temperature":17,"wind_speed":20,"wind_direction":150,"cloud_cover":52,"precipitation":0}},
{"type":"Feature","id":76,"geometry":{"type":"Point","coordinates":[-8.002,12.652]},"properties":{"name":"Bamako","country":"ML","condition":"partly-cloudy","is_day":true,"temperature":26,"wind_speed":9,"wind_direction":50,"cloud_cover":57,"precipitation":0}},
{"type":"Feature","id":77,"geometry":{"type":"Point","coordinates":[-13.682,9.533]},"properties":{"name":"Conakry","country":"GN","condition":"partly-cloudy","is_day":true,"temperature":27,"wind_speed":3,"wind_direction":50,"cloud_cover":44,"precipitation":0}},
{"type":"Feature","id":78,"geometry":{"type":"Point","coordinates":[104.915,11.552]},"properties":{"name":"Phnom Penh","country":"KH","condition":"clear","is_day":false,"temperature":21,"wind_speed":6,"wind_direction":30,"cloud_cover":22,"precipitation":0}},
{"type":"Feature","id":79,"geometry":{"type":"Point","coordinates":[32.587,-25.953]},"properties":{"name":"Maputo","country":"MZ","condition":"clear","is_day":true,"temperature":28,"wind_speed":9,"wind_direction":200,"cloud_cover":20,"precipitation":0}},
{"type":"Feature","id":80,"geometry":{"type":"Point","coordinates":[-89.216,13.703]},"properties":{"name":"San Salvador","country":"SV","condition":"clear","is_day":true,"temperature":25,"wind_speed":24,"wind_direction":340,"cloud_cover":27,"precipitation":0}},
{"type":"Feature","id":81,"geometry":{"type":"Point","coordinates":[32.581,0.319]},"properties":{"name":"Kampala","country":"UG","condition":"clear","is_day":true,"temperature":30,"wind_speed":26,"wind_direction":350,"cloud_cover":11,"precipitation":0}},
{"type":"Feature","id":82,"geometry":{"type":"Point","coordinates":[-79.389,43.665]},"properties":{"name":"Toronto","country":"CA","condition":"snow","is_day":true,"temperature":-1,"wind_speed":31,"wind_direction":260,"cloud_cover":100,"precipitation":0.8}},
{"type":"Feature","id":83,"geometry":{"type":"Point","coordinates":[-84.079,9.93]},"properties":{"name":"San José","country":"CR","condition":"clear","is_day":true,"temperature":25,"wind_speed":17,"wind_direction":350,"cloud_cover":23,"precipitation":0}},
{"type":"Feature","id":84,"geometry":{"type":"Point","coordinates":[-79.535,8.97]},"properties":{"name":"Panama City","country":"PA","condition":"clear","is_day":true,"temperature":25,"wind_speed":15,"wind_direction":330,"cloud_cover":29,"precipitation":0}},
{"type":"Feature","id":85,"geometry":{"type":"Point","coordinates":[18.066,59.324]},"properties":{"name":"Stockholm","country":"SE","condition":"wind","is_day":false,"temperature":-1,"wind_speed":36,"wind_direction":80,"cloud_cover":67,"precipitation":0}},
{"type":"Feature","id":86,"geometry":{"type":"Point","coordinates":[2.181,41.385]},"properties":{"name":"Barcelona","country":"ES","condition":"rain","is_day":true,"temperature":10,"wind_speed":26,"wind_direction":280,"cloud_cover":100,"precipitation":5.5}},
{"type":"Feature","id":87,"geometry":{"type":"Point","coordinates":[-96.795,32.772]},"properties":{"name":"Dallas","country":"US","condition":"partly-cloudy","is_day":true,"temperature":14,"wind_speed":11,"wind_direction":310,"cloud_cover":78,"precipitation":0}},
{"type":"Feature","id":88,"geometry":{"type":"Point","coordinates":[123.448,41.807]},"properties":{"name":"Shenyeng","country":"CN","condition":"clear","is_day":false,"temperature":1,"wind_speed":6,"wind_direction":150,"cloud_cover":11,"precipitation":0}},
{"type":"Feature","id":89,"geometry":{"type":"Point","coordinates":[151.213,-33.871]},"properties":{"name":"Sydney","country":"AU","condition":"partly-cloudy","is_day":false,"temperature":21,"wind_speed":23,"wind_direction":150,"cloud_cover":64,"precipitation":0}},
{"type":"Feature","id":90,"geometry":{"type":"Point","coordinates":[-1.527,12.372]},"properties":{"name":"Ouagadougou","country":"BF","condition":"partly-cloudy","is_day":true,"temperature":29,"wind_speed":14,"wind_direction":90,"cloud_cover":47,"precipitation":0}},
{"type":"Feature","id":91,"geometry":{"type":"Point","coordinates":[30.314,59.941]},"properties":{"name":"St. Petersburg","country":"RU","condition":"wind","is_day":false,"temperature":-2,"wind_speed":38,"wind_direction":80,"cloud_cover":44,"precipitation":0}},
{"type":"Feature","id":92,"geometry":{"type":"Point","coordinates":[-84.368,33.739]},"properties":{"name":"Atlanta","country":"US","condition":"partly-cloudy","is_day":true,"temperature":14,"wind_speed":18,"wind_direction":300,"cloud_cover":67,"precipitation":0}},
{"type":"Feature","id":93,"geometry":{"type":"Point","coordinates":[45.365,2.069]},"properties":{"name":"Mogadishu","country":"SO","condition":"partly-cloudy","is_day":false,"temperature":31,"wind_speed":14,"wind_direction":140,"cloud_cover":35,"precipitation":0}},
{"type":"Feature","id":94,"geometry":{"type":"Point","coordinates":[-6.257,53.347]},"properties":{"name":"Dublin","country":"IE","condition":"rain","is_day":true,"temperature":5,"wind_speed":35,"wind_direction":60,"cloud_cover":94,"precipitation":7.3}},
{"type":"Feature","id":95,"geometry":{"type":"Point","coordinates":[144.973,-37.818]},"properties":{"name":"Melbourne","country":"AU","condition":"fog","is_day":false,"temperature":16,"wind_speed":4,"wind_direction":170,"cloud_cover":100,"precipitation":0}},
{"type":"Feature","id":96,"geometry":{"type":"Point","coordinates":[96.165,16.785]},"properties":{"name":"Yangon","country":"MM","condition":"clear","is_day":false,"temperature":22,"wind_speed":3,"wind_direction":0,"cloud_cover":7,"precipitation":0}},
{"type":"Feature","id":97,"geometry":{"type":"Point","coordinates":[108.893,34.277]},"properties":{"name":"Xian","country":"CN","condition":"clear","is_day":false,"temperature":7,"wind_speed":6,"wind_direction":330,"cloud_cover":3,"precipitation":0}},
{"type":"Feature","id":98,"geometry":{"type":"Point","coordinates":[15.047,12.115]},"properties":{"name":"N'Djamena","country":"TD","condition":"partly-cloudy","is_day":true,"temperature":32,"wind_speed":20,"wind_direction":50,"cloud_cover":72,"precipitation":0}},
{"type":"Feature","id":99,"geometry":{"type":"Point","coordinates":[-51.202,-30.048]},"properties":{"name":"Porto Alegre","country":"BR","condition":"clear","is_day":true,"temperature":26,"wind_speed":11,"wind_direction":220,"cloud_cover":29,"precipitation":0}},
{"type":"Feature","id":100,"geometry":{"type":"Point","coordinates":[-76.767,17.977]},"properties":{"name":"Kingston","country":"JM","condition":"clear","is_day":true,"temperature":25,"wind_speed":21,"wind_direction":310,"cloud_cover":21,"precipitation":0}},
{"type":"Feature","id":101,"geometry":{"type":"Point","coordinates":[-100.332,25.672]},"properties":{"name":"Monterrey","country":"MX","condition":"partly-cloudy","is_day":true,"temperature":19,"wind_speed":14,"wind_direction":310,"cloud_cover":70,"precipitation":0}},
{"type":"Feature","id":102,"geometry":{"type":"Point","coordinates":[-73.585,45.502]},"properties":{"name":"Montréal","country":"CA","condition":"snow","is_day":true,"temperature":-2,"wind_speed":31,"wind_direction":180,"cloud_cover":100,"precipitation":1}},
{"type":"Feature","id":103,"geometry":{"type":"Point","coordinates":[-34.909,-8.061]},"properties":{"name":"Recife","country":"BR","condition":"thunderstorm","is_day":true,"temperature":32,"wind_speed":28,"wind_direction":290,"cloud_cover":100,"precipitation":29.2}},
{"type":"Feature","id":104,"geometry":{"type":"Point","coordinates":[126.648,45.752]},"properties":{"name":"Harbin","country":"CN","condition":"clear","is_day":false,"temperature":-24,"wind_speed":21,"wind_direction":140,"cloud_cover":30,"precipitation":0}},
{"type":"Feature","id":105,"geometry":{"type":"Point","coordinates":[-38.582,-3.748]},"properties":{"name":"Fortaleza","country":"BR","condition":"thunderstorm","is_day":true,"temperature":32,"wind_speed":27,"wind_direction":320,"cloud_cover":92,"precipitation":22.4}},
{"type":"Feature","id":106,"geometry":{"type":"Point","coordinates":[19.819,41.328]},"properties":{"name":"Tirana","country":"AL","condition":"overcast","is_day":true,"temperature":6,"wind_speed":12,"wind_direction":320,"cloud_cover":84,"precipitation":0}},
{"type":"Feature","id":107,"geometry":{"type":"Point","coordinates":[85.315,27.719]},"properties":{"name":"Kathmandu","country":"NP","condition":"clear","is_day":false,"temperature":2,"wind_speed":1,"wind_direction":310,"cloud_cover":0,"precipitation":0}},
{"type":"Feature","id":108,"geometry":{"type":"Point","coordinates":[87.573,43.807]},"properties":{"name":"Ürümqi","country":"CN","condition":"fog","is_day":false,"temperature":-4,"wind_speed":19,"wind_direction":350,"cloud_cover":100,"precipitation":0}},
{"type":"Feature","id":109,"geometry":{"type":"Point","coordinates":[-112.067,33.448]},"properties":{"name":"Phoenix","country":"US","condition":"partly-cloudy","is_day":true,"temperature":12,"wind_speed":10,"wind_direction":300,"cloud_cover":64,"precipitation":0}},
{"type":"Feature","id":110,"geometry":{"type":"Point","coordinates":[106.915,47.919]},"properties":{"name":"Ulaanbaatar","country":"MN","condition":"clear","is_day":false,"temperature":-24,"wind_speed":15,"wind_direction":60,"cloud_cover":16,"precipitation":0}},
{"type":"Feature","id":111,"geometry":{"type":"Point","coordinates":[-38.482,-12.968]},"properties":{"name":"Salvador","country":"BR","condition":"thunderstorm","is_day":true,"temperature":33,"wind_speed":22,"wind_direction":190,"cloud_cover":84,"precipitation":16}},
{"type":"Feature","id":112,"geometry":{"type":"Point","coordinates":[-122.4,37.784]},"properties":{"name":"San Francisco","country":"US","condition":"rain","is_day":false,"temperature":10,"wind_speed":26,"wind_direction":310,"cloud_cover":93,"precipitation":5.3}},
{"type":"Feature","id":113,"geometry":{"type":"Point","coordinates":[18.558,4.367]},"properties":{"name":"Bangui","country":"CF","condition":"partly-cloudy","is_day":true,"temperature":31,"wind_speed":23,"wind_direction":40,"cloud_cover":76,"precipitation":0}},
{"type":"Feature","id":114,"geometry":{"type":"Point","coordinates":[-122.315,47.6]},"properties":{"name":"Seattle","country":"US","condition":"sleet","is_day":false,"temperature":1,"wind_speed":34,"wind_direction":330,"cloud_cover":84,"precipitation":1}},
{"type":"Feature","id":115,"geometry":{"type":"Point","coordinates":[39.217,21.519]},"properties":{"name":"Jeddah","country":"SA","condition":"clear","is_day":false,"temperature":27,"wind_speed":6,"wind_direction":190,"cloud_cover":0,"precipitation":0}},
{"type":"Feature","id":116,"geometry":{"type":"Point","coordinates":[58.378,23.585]},"properties":{"name":"Muscat","country":"OM","condition":"clear","is_day":false,"temperature":20,"wind_speed":9,"wind_direction":180,"cloud_cover":18,"precipitation":0}},
{"type":"Feature","id":117,"geometry":{"type":"Point","coordinates":[102.697,25.043]},"properties":{"name":"Kunming","country":"CN","condition":"clear","is_day":false,"temperature":-2,"wind_speed":14,"wind_direction":330,"cloud_cover":30,"precipitation":0}},
{"type":"Feature","id":118,"geometry":{"type":"Point","coordinates":[58.383,37.95]},"properties":{"name":"Ashgabat","country":"TM","condition":"partly-cloudy","is_day":false,"temperature":8,"wind_speed":15,"wind_direction":230,"cloud_cover":66,"precipitation":0}},
{"type":"Feature","id":119,"geometry":{"type":"Point","coordinates":[120.328,36.092]},"properties":{"name":"Qingdao","country":"CN","condition":"clear","is_day":false,"temperature":6,"wind_speed":0,"wind_direction":170,"cloud_cover":6,"precipitation":0}},
{"type":"Feature","id":120,"geometry":{"type":"Point","coordinates":[112.749,-7.247]},"properties":{"name":"Surabaya","country":"ID","condition":"drizzle","is_day":false,"temperature":22,"wind_speed":2,"wind_direction":0,"cloud_cover":80,"precipitation":0.2}},
{"type":"Feature","id":121,"geometry":{"type":"Point","coordinates":[130.408,33.597]},"properties":{"name":"Fukuoka","country":"JP","condition":"partly-cloudy","is_day":false,"temperature":4,"wind_speed":12,"wind_direction":180,"cloud_cover":53,"precipitation":0}},
{"type":"Feature","id":122,"geometry":{"type":"Point","coordinates":[-93.254,44.982]},"properties":{"name":"Minneapolis","country":"US","condition":"overcast","is_day":true,"temperature":-4,"wind_speed":29,"wind_direction":320,"cloud_cover":96,"precipitation":0}},
{"type":"Feature","id":123,"geometry":{"type":"Point","coordinates":[33.783,-13.983]},"properties":{"name":"Lilongwe","country":"MW","condition":"rain","is_day":true,"temperature":18,"wind_speed":26,"wind_direction":140,"cloud_cover":80,"precipitation":4.5}},
{"type":"Feature","id":124,"geometry":{"type":"Point","coordinates":[103.79,36.058]},"properties":{"name":"Lanzhou","country":"CN","condition":"clear","is_day":false,"temperature":6,"wind_speed":15,"wind_direction":330,"cloud_cover":2,"precipitation":0}},
{"type":"Feature","id":125,"geometry":{"type":"Point","coordinates":[141.338,43.077]},"properties":{"name":"Sapporo","country":"JP","condition":"clear","is_day":false,"temperature":-25,"wind_speed":20,"wind_direction":190,"cloud_cover":16,"precipitation":0}},
{"type":"Feature","id":126,"geometry":{"type":"Point","coordinates":[100.329,5.414]},"properties":{"name":"George Town","country":"MY","condition":"partly-cloudy","is_day":false,"temperature":25,"wind_speed":6,"wind_direction":40,"cloud_cover":46,"precipitation":0}},
{"type":"Feature","id":127,"geometry":{"type":"Point","coordinates":[38.933,15.333]},"properties":{"name":"Asmara","country":"ER","condition":"clear","is_day":true,"temperature":18,"wind_speed":5,"wind_direction":120,"cloud_cover":0,"precipitation":0}},
{"type":"Feature","id":128,"geometry":{"type":"Point","coordinates":[57.5,-20.167]},"properties":{"name":"Port Louis","country":"MU","condition":"drizzle","is_day":false,"temperature":24,"wind_speed":10,"wind_direction":330,"cloud_cover":85,"precipitation":0.2}},
{"type":"Feature","id":129,"geometry":{"type":"Point","coordinates":[-82.461,27.949]},"properties":{"name":"Tampa","country":"US","condition":"clear","is_day":true,"temperature":19,"wind_speed":21,"wind_direction":300,"cloud_cover":21,"precipitation":0}},
{"type":"Feature","id":130,"geometry":{"type":"Point","coordinates":[-104.986,39.741]},"properties":{"name":"Denver","country":"US","condition":"partly-cloudy","is_day":true,"temperature":-4,"wind_speed":13,"wind_direction":310,"cloud_cover":69,"precipitation":0}},
{"type":"Feature","id":131,"geometry":{"type":"Point","coordinates":[-48.482,-1.448]},"properties":{"name":"Belém","country":"BR","condition":"thunderstorm","is_day":true,"temperature":28,"wind_speed":23,"wind_direction":130,"cloud_cover":80,"precipitation":15.4}},
{"type":"Feature","id":132,"geometry":{"type":"Point","coordinates":[-63.228,-17.752]},"properties":{"name":"Santa Cruz","country":"BO","condition":"partly-cloudy","is_day":true,"temperature":28,"wind_speed":16,"wind_direction":200,"cloud_cover":56,"precipitation":0}},
{"type":"Feature","id":133,"geometry":{"type":"Point","coordinates":[-71.662,10.732]},"properties":{"name":"Maracaibo","country":"VE","condition":"partly-cloudy","is_day":true,"temperature":26,"wind_speed":20,"wind_direction":320,"cloud_cover":41,"precipitation":0}},
{"type":"Feature","id":134,"geometry":{"type":"Point","coordinates":[109.82,40.654]},"properties":{"name":"Baotou","country":"CN","condition":"clear","is_day":false,"temperature":4,"wind_speed":4,"wind_direction":20,"cloud_cover":0,"precipitation":0}},
{"type":"Feature","id":135,"geometry":{"type":"Point","coordinates":[75.863,22.717]},"properties":{"name":"Indore","country":"IN","condition":"clear","is_day":false,"temperature":15,"wind_speed":1,"wind_direction":260,"cloud_cover":30,"precipitation":0}},
{"type":"Feature","id":136,"geometry":{"type":"Point","coordinates":[44.065,9.56]},"properties":{"name":"Hargeisa","country":"SOL","condition":"clear","is_day":false,"temperature":33,"wind_speed":9,"wind_direction":120,"cloud_cover":23,"precipitation":0}},
{"type":"Feature","id":137,"geometry":{"type":"Point","coordinates":[153.033,-27.453]},"properties":{"name":"Brisbane","country":"AU","condition":"clear","is_day":false,"temperature":26,"wind_speed":26,"wind_direction":160,"cloud_cover":30,"precipitation":0}},
{"type":"Feature","id":138,"geometry":{"type":"Point","coordinates":[26.23,-29.12]},"properties":{"name":"Bloemfontein","country":"ZA","condition":"clear","is_day":true,"temperature":30,"wind_speed":18,"wind_direction":270,"cloud_cover":11,"precipitation":0}},
{"type":"Feature","id":139,"geometry":{"type":"Point","coordinates":[-60.002,-3.098]},"properties":{"name":"Manaus","country":"BR","condition":"thunderstorm","is_day":true,"temperature":23,"wind_speed":39,"wind_direction":120,"cloud_cover":80,"precipitation":23.4}},
{"type":"Feature","id":140,"geometry":{"type":"Point","coordinates":[7.668,45.072]},"properties":{"name":"Turin","country":"IT","condition":"rain","is_day":true,"temperature":6,"wind_speed":34,"wind_direction":330,"cloud_cover":100,"precipitation":9.7}},
{"type":"Feature","id":141,"geometry":{"type":"Point","coordinates":[174.777,-41.292]},"properties":{"name":"Wellington","country":"NZ","condition":"partly-cloudy","is_day":false,"temperature":18,"wind_speed":23,"wind_direction":350,"cloud_cover":42,"precipitation":0}},
{"type":"Feature","id":142,"geometry":{"type":"Point","coordinates":[115.838,-31.953]},"properties":{"name":"Perth","country":"AU","condition":"partly-cloudy","is_day":false,"temperature":18,"wind_speed":22,"wind_direction":50,"cloud_cover":39,"precipitation":0}},
{"type":"Feature","id":143,"geometry":{"type":"Point","coordinates":[83.22,17.683]},"properties":{"name":"Vishakhapatnam","country":"IN","condition":"clear","is_day":false,"temperature":22,"wind_speed":3,"wind_direction":350,"cloud_cover":29,"precipitation":0}},
{"type":"Feature","id":144,"geometry":{"type":"Point","coordinates":[71.453,30.202]},"properties":{"name":"Multan","country":"PK","condition":"clear","is_day":false,"temperature":9,"wind_speed":0,"wind_direction":270,"cloud_cover":9,"precipitation":0}},
{"type":"Feature","id":145,"geometry":{"type":"Point","coordinates":[76.222,10.017]},"properties":{"name":"Kochi","country":"IN","condition":"partly-cloudy","is_day":false,"temperature":28,"wind_speed":28,"wind_direction":130,"cloud_cover":77,"precipitation":0}},
{"type":"Feature","id":146,"geometry":{"type":"Point","coordinates":[-94.606,39.109]},"properties":{"name":"Kansas City","country":"US","condition":"overcast","is_day":true,"temperature":9,"wind_speed":15,"wind_direction":310,"cloud_cover":85,"precipitation":0}},
{"type":"Feature","id":147,"geometry":{"type":"Point","coordinates":[-64.184,-31.398]},"properties":{"name":"Córdoba","country":"AR","condition":"partly-cloudy","is_day":true,"temperature":21,"wind_speed":18,"wind_direction":270,"cloud_cover":39,"precipitation":0}},
{"type":"Feature","id":148,"geometry":{"type":"Point","coordinates":[125.628,7.112]},"properties":{"name":"Davao","country":"PH","condition":"partly-cloudy","is_day":false,"temperature":20,"wind_speed":21,"wind_direction":200,"cloud_cover":63,"precipitation":0}},
{"type":"Feature","id":149,"geometry":{"type":"Point","coordinates":[82.958,55.032]},"properties":{"name":"Novosibirsk","country":"RU","condition":"overcast","is_day":false,"temperature":-9,"wind_speed":25,"wind_direction":80,"cloud_cover":97,"precipitation":0}},
{"type":"Feature","id":150,"geometry":{"type":"Point","coordinates":[71.428,51.181]},"properties":{"name":"Nur-Sultan","country":"KZ","condition":"overcast","is_day":false,"temperature":-6,"wind_speed":22,"wind_direction":140,"cloud_cover":100,"precipitation":0}},
{"type":"Feature","id":151,"geometry":{"type":"Point","coordinates":[27.478,-11.678]},"properties":{"name":"Lubumbashi","country":"CD","condition":"thunderstorm","is_day":true,"temperature":23,"wind_speed":39,"wind_direction":140,"cloud_cover":90,"precipitation":22.7}},
{"type":"Feature","id":152,"geometry":{"type":"Point","coordinates":[29.36,-3.376]},"properties":{"name":"Bujumbura","country":"BI","condition":"rain","is_day":true,"temperature":27,"wind_speed":37,"wind_direction":150,"cloud_cover":80,"precipitation":2.6}},
{"type":"Feature","id":153,"geometry":{"type":"Point","coordinates":[60.598,56.852]},"properties":{"name":"Yekaterinburg","country":"RU","condition":"partly-cloudy","is_day":false,"temperature":-6,"wind_speed":34,"wind_direction":120,"cloud_cover":54,"precipitation":0}},
{"type":"Feature","id":154,"geometry":{"type":"Point","coordinates":[96.083,21.972]},"properties":{"name":"Mandalay","country":"MM","condition":"clear","is_day":false,"temperature":17,"wind_speed":7,"wind_direction":330,"cloud_cover":10,"precipitation":0}},
{"type":"Feature","id":155,"geometry":{"type":"Point","coordinates":[23.598,-6.148]},"properties":{"name":"Mbuji-Mayi","country":"CD","condition":"thunderstorm","is_day":true,"temperature":24,"wind_speed":41,"wind_direction":140,"cloud_cover":100,"precipitation":24}},
{"type":"Feature","id":156,"geometry":{"type":"Point","coordinates":[119.43,-5.138]},"properties":{"name":"Makassar","country":"ID","condition":"rain","is_day":false,"temperature":17,"wind_speed":17,"wind_direction":10,"cloud_cover":80,"precipitation":6.7}},
{"type":"Feature","id":157,"geometry":{"type":"Point","coordinates":[-40.29,-20.338]},"properties":{"name":"Vila Velha","country":"BR","condition":"partly-cloudy","is_day":true,"temperature":33,"wind_speed":5,"wind_direction":190,"cloud_cover":36,"precipitation":0}},
{"type":"Feature","id":158,"geometry":{"type":"Point","coordinates":[76.913,43.327]},"properties":{"name":"Almaty","country":"KZ","condition":"partly-cloudy","is_day":false,"temperature":-4,"wind_speed":12,"wind_direction":290,"cloud_cover":75,"precipitation":0}},
{"type":"Feature","id":159,"geometry":{"type":"Point","coordinates":[114.933,4.883]},"properties":{"name":"Bandar Seri Begawan","country":"BN","condition":"rain","is_day":false,"temperature":16,"wind_speed":14,"wind_direction":80,"cloud_cover":80,"precipitation":5.6}},
{"type":"Feature","id":160,"geometry":{"type":"Point","coordinates":[20.065,32.119]},"properties":{"name":"Banghazi","country":"LY","condition":"clear","is_day":true,"temperature":15,"wind_speed":4,"wind_direction":310,"cloud_cover":2,"precipitation":0}},
{"type":"Feature","id":161,"geometry":{"type":"Point","coordinates":[-61.517,10.652]},"properties":{"name":"Port-of-Spain","country":"TT","condition":"partly-cloudy","is_day":true,"temperature":24,"wind_speed":27,"wind_direction":320,"cloud_cover":47,"precipitation":0}},
{"type":"Feature","id":162,"geometry":{"type":"Point","coordinates":[-78.647,35.773]},"properties":{"name":"Raleigh","country":"US","condition":"partly-cloudy","is_day":true,"temperature":14,"wind_speed":17,"wind_direction":280,"cloud_cover":70,"precipitation":0}},
{"type":"Feature","id":163,"geometry":{"type":"Point","coordinates":[138.598,-34.933]},"properties":{"name":"Adelaide","country":"AU","condition":"fog","is_day":false,"temperature":17,"wind_speed":0,"wind_direction":170,"cloud_cover":100,"precipitation":0}},
{"type":"Feature","id":164,"geometry":{"type":"Point","coordinates":[74.828,34.069]},"properties":{"name":"Srinagar","country":"IN","condition":"partly-cloudy","is_day":false,"temperature":6,"wind_speed":1,"wind_direction":280,"cloud_cover":46,"precipitation":0}},
{"type":"Feature","id":165,"geometry":{"type":"Point","coordinates":[50.149,53.197]},"properties":{"name":"Samara","country":"RU","condition":"wind","is_day":false,"temperature":-4,"wind_speed":36,"wind_direction":120,"cloud_cover":43,"precipitation":0}},
{"type":"Feature","id":166,"geometry":{"type":"Point","coordinates":[147.193,-9.465]},"properties":{"name":"Port Moresby","country":"PG","condition":"partly-cloudy","is_day":false,"temperature":28,"wind_speed":15,"wind_direction":170,"cloud_cover":54,"precipitation":0}},
{"type":"Feature","id":167,"geometry":{"type":"Point","coordinates":[-114.082,51.085]},"properties":{"name":"Calgary","country":"CA","condition":"snow","is_day":false,"temperature":-21,"wind_speed":39,"wind_direction":340,"cloud_cover":87,"precipitation":1.5}},
{"type":"Feature","id":168,"geometry":{"type":"Point","coordinates":[15.758,-12.748]},"properties":{"name":"Huambo","country":"AO","condition":"drizzle","is_day":true,"temperature":27,"wind_speed":21,"wind_direction":20,"cloud_cover":88,"precipitation":0.2}},
{"type":"Feature","id":169,"geometry":{"type":"Point","coordinates":[-90.029,35.145]},"properties":{"name":"Memphis","country":"US","condition":"overcast","is_day":true,"temperature":12,"wind_speed":15,"wind_direction":300,"cloud_cover":83,"precipitation":0}},
{"type":"Feature","id":170,"geometry":{"type":"Point","coordinates":[17.084,-22.57]},"properties":{"name":"Windhoek","country":"NA","condition":"clear","is_day":true,"temperature":20,"wind_speed":21,"wind_direction":330,"cloud_cover":14,"precipitation":0}},
{"type":"Feature","id":171,"geometry":{"type":"Point","coordinates":[-58.167,6.802]},"properties":{"name":"Georgetown","country":"GY","condition":"clear","is_day":true,"temperature":24,"wind_speed":26,"wind_direction":310,"cloud_cover":25,"precipitation":0}},
{"type":"Feature","id":172,"geometry":{"type":"Point","coordinates":[39.711,47.237]},"properties":{"name":"Rostov","country":"RU","condition":"partly-cloudy","is_day":false,"temperature":3,"wind_speed":35,"wind_direction":120,"cloud_cover":42,"precipitation":0}},
{"type":"Feature","id":173,"geometry":{"type":"Point","coordinates":[25.598,-33.968]},"properties":{"name":"Port Elizabeth","country":"ZA","condition":"clear","is_day":true,"temperature":29,"wind_speed":18,"wind_direction":290,"cloud_cover":26,"precipitation":0}},
{"type":"Feature","id":174,"geometry":{"type":"Point","coordinates":[108.25,16.06]},"properties":{"name":"Da Nang","country":"VN","condition":"partly-cloudy","is_day":false,"temperature":20,"wind_speed":11,"wind_direction":0,"cloud_cover":35,"precipitation":0}},
{"type":"Feature","id":175,"geometry":{"type":"Point","coordinates":[-111.932,40.777]},"properties":{"name":"Salt Lake City","country":"US","condition":"snow","is_day":true,"temperature":-4,"wind_speed":19,"wind_direction":320,"cloud_cover":80,"precipitation":0.8}},
{"type":"Feature","id":176,"geometry":{"type":"Point","coordinates":[-89.619,20.969]},"properties":{"name":"Mérida","country":"MX","condition":"partly-cloudy","is_day":true,"temperature":21,"wind_speed":26,"wind_direction":310,"cloud_cover":41,"precipitation":0}},
{"type":"Feature","id":177,"geometry":{"type":"Point","coordinates":[125.579,-8.559]},"properties":{"name":"Dili","country":"TL","condition":"rain","is_day":false,"temperature":18,"wind_speed":24,"wind_direction":20,"cloud_cover":80,"precipitation":4.2}},
{"type":"Feature","id":178,"geometry":{"type":"Point","coordinates":[92.864,56.016]},"properties":{"name":"Krasnoyarsk","country":"RU","condition":"overcast","is_day":false,"temperature":-12,"wind_speed":28,"wind_direction":70,"cloud_cover":82,"precipitation":0}},
{"type":"Feature","id":179,"geometry":{"type":"Point","coordinates":[-77.35,25.083]},"properties":{"name":"Nassau","country":"BS","condition":"clear","is_day":true,"temperature":22,"wind_speed":19,"wind_direction":300,"cloud_cover":0,"precipitation":0}},
{"type":"Feature","id":180,"geometry":{"type":"Point","coordinates":[127.673,26.207]},"properties":{"name":"Naha","country":"JP","condition":"partly-cloudy","is_day":false,"temperature":11,"wind_speed":3,"wind_direction":190,"cloud_cover":39,"precipitation":0}},
{"type":"Feature","id":181,"geometry":{"type":"Point","coordinates":[-106.641,35.105]},"properties":{"name":"Albuquerque","country":"US","condition":"partly-cloudy","is_day":true,"temperature":11,"wind_speed":7,"wind_direction":310,"cloud_cover":64,"precipitation":0}},
{"type":"Feature","id":182,"geometry":{"type":"Point","coordinates":[79.858,6.932]},"properties":{"name":"Colombo","country":"LK","condition":"partly-cloudy","is_day":false,"temperature":30,"wind_speed":24,"wind_direction":100,"cloud_cover":70,"precipitation":0}},
{"type":"Feature","id":183,"geometry":{"type":"Point","coordinates":[77.25,38.426]},"properties":{"name":"Shache","country":"CN","condition":"partly-cloudy","is_day":false,"temperature":4,"wind_speed":7,"wind_direction":290,"cloud_cover":48,"precipitation":0}},
{"type":"Feature","id":184,"geometry":{"type":"Point","coordinates":[-65.219,-26.814]},"properties":{"name":"Tucumán","country":"AR","condition":"clear","is_day":true,"temperature":24,"wind_speed":14,"wind_direction":270,"cloud_cover":30,"precipitation":0}},
{"type":"Feature","id":185,"geometry":{"type":"Point","coordinates":[-107.382,24.832]},"properties":{"name":"Culiacán","country":"MX","condition":"partly-cloudy","is_day":true,"temperature":21,"wind_speed":9,"wind_direction":310,"cloud_cover":53,"precipitation":0}},
{"type":"Feature","id":186,"geometry":{"type":"Point","coordinates":[-56.087,-15.568]},"properties":{"name":"Cuiabá","country":"BR","condition":"partly-cloudy","is_day":true,"temperature":29,"wind_speed":18,"wind_direction":160,"cloud_cover":67,"precipitation":0}},
{"type":"Feature","id":187,"geometry":{"type":"Point","coordinates":[-157.858,21.303]},"properties":{"name":"Honolulu","country":"US","condition":"partly-cloudy","is_day":false,"temperature":26,"wind_speed":0,"wind_direction":70,"cloud_cover":46,"precipitation":0}},
{"type":"Feature","id":188,"geometry":{"type":"Point","coordinates":[-90.088,29.969]},"properties":{"name":"New Orleans","country":"US","condition":"partly-cloudy","is_day":true,"temperature":16,"wind_speed":18,"wind_direction":300,"cloud_cover":63,"precipitation":0}},
{"type":"Feature","id":189,"geometry":{"type":"Point","coordinates":[-54.619,-20.448]},"properties":{"name":"Campo Grande","country":"BR","condition":"clear","is_day":true,"temperature":30,"wind_speed":14,"wind_direction":190,"cloud_cover":30,"precipitation":0}},
{"type":"Feature","id":190,"geometry":{"type":"Point","coordinates":[5.24,13.06]},"properties":{"name":"Sokoto","country":"NG","condition":"partly-cloudy","is_day":true,"temperature":32,"wind_speed":16,"wind_direction":100,"cloud_cover":36,"precipitation":0}},
{"type":"Feature","id":191,"geometry":{"type":"Point","coordinates":[178.442,-18.133]},"properties":{"name":"Suva","country":"FJ","condition":"overcast","is_day":false,"temperature":21,"wind_speed":10,"wind_direction":100,"cloud_cover":100,"precipitation":0}},
{"type":"Feature","id":192,"geometry":{"type":"Point","coordinates":[-21.937,64.143]},"properties":{"name":"Reykjavík","country":"IS","condition":"partly-cloudy","is_day":true,"temperature":-1,"wind_speed":27,"wind_direction":200,"cloud_cover":50,"precipitation":0}},
{"type":"Feature","id":193,"geometry":{"type":"Point","coordinates":[-97.166,49.883]},"properties":{"name":"Winnipeg","country":"CA","condition":"snow","is_day":true,"temperature":-16,"wind_speed":39,"wind_direction":340,"cloud_cover":92,"precipitation":1.3}},
{"type":"Feature","id":194,"geometry":{"type":"Point","coordinates":[32.65,25.7]},"properties":{"name":"Luxor","country":"EG","condition":"clear","is_day":true,"temperature":22,"wind_speed":14,"wind_direction":290,"cloud_cover":0,"precipitation":0}},
{"type":"Feature","id":195,"geometry":{"type":"Point","coordinates":[131.91,43.13]},"properties":{"name":"Vladivostok","country":"RU","condition":"partly-cloudy","is_day":false,"temperature":-24,"wind_speed":23,"wind_direction":170,"cloud_cover":35,"precipitation":0}},
{"type":"Feature","id":196,"geometry":{"type":"Point","coordinates":[104.284,52.285]},"properties":{"name":"Irkutsk","country":"RU","condition":"clear","is_day":false,"temperature":-18,"wind_speed":20,"wind_direction":60,"cloud_cover":30,"precipitation":0}},
{"type":"Feature","id":197,"geometry":{"type":"Point","coordinates":[135.12,48.455]},"properties":{"name":"Khabarovsk","country":"RU","condition":"clear","is_day":false,"temperature":-29,"wind_speed":28,"wind_direction":170,"cloud_cover":29,"precipitation":0}},
{"type":"Feature","id":198,"geometry":{"type":"Point","coordinates":[25.22,0.52]},"properties":{"name":"Kisangani","country":"CD","condition":"drizzle","is_day":true,"temperature":28,"wind_speed":33,"wind_direction":0,"cloud_cover":80,"precipitation":0.2}},
{"type":"Feature","id":199,"geometry":{"type":"Point","coordinates":[110.33,1.53]},"properties":{"name":"Kuching","country":"MY","condition":"rain","is_day":false,"temperature":18,"wind_speed":10,"wind_direction":70,"cloud_cover":80,"precipitation":8.6}},
{"type":"Feature","id":200,"geometry":{"type":"Point","coordinates":[43.24,-11.704]},"properties":{"name":"Moroni","country":"KM","condition":"thunderstorm","is_day":true,"temperature":25,"wind_speed":19,"wind_direction":70,"cloud_cover":92,"precipitation":16.3}},
{"type":"Feature","id":201,"geometry":{"type":"Point","coordinates":[95.32,5.55]},"properties":{"name":"Banda Aceh","country":"ID","condition":"partly-cloudy","is_day":false,"temperature":29,"wind_speed":7,"wind_direction":40,"cloud_cover":45,"precipitation":0}},
{"type":"Feature","id":202,"geometry":{"type":"Point","coordinates":[48.055,46.349]},"properties":{"name":"Astrakhan","country":"RU","condition":"snow","is_day":false,"temperature":-3,"wind_speed":37,"wind_direction":190,"cloud_cover":80,"precipitation":0.8}},
{"type":"Feature","id":203,"geometry":{"type":"Point","coordinates":[-93.15,16.75]},"properties":{"name":"Tuxtla Gutiérrez","country":"MX","condition":"partly-cloudy","is_day":true,"temperature":24,"wind_speed":26,"wind_direction":330,"cloud_cover":49,"precipitation":0}},
{"type":"Feature","id":204,"geometry":{"type":"Point","coordinates":[62.17,34.33]},"properties":{"name":"Herat","country":"AF","condition":"partly-cloudy","is_day":false,"temperature":9,"wind_speed":9,"wind_direction":240,"cloud_cover":69,"precipitation":0}},
{"type":"Feature","id":205,"geometry":{"type":"Point","coordinates":[-73.25,-3.75]},"properties":{"name":"Iquitos","country":"PE","condition":"drizzle","is_day":true,"temperature":27,"wind_speed":20,"wind_direction":80,"cloud_cover":80,"precipitation":0.2}},
{"type":"Feature","id":206,"geometry":{"type":"Point","coordinates":[49.67,58.59]},"properties":{"name":"Kirov","country":"RU","condition":"wind","is_day":false,"temperature":-6,"wind_speed":41,"wind_direction":100,"cloud_cover":31,"precipitation":0}},
{"type":"Feature","id":207,"geometry":{"type":"Point","coordinates":[-23.517,14.917]},"properties":{"name":"Praia","country":"CV","condition":"clear","is_day":true,"temperature":27,"wind_speed":9,"wind_direction":160,"cloud_cover":6,"precipitation":0}},
{"type":"Feature","id":208,"geometry":{"type":"Point","coordinates":[73.509,4.172]},"properties":{"name":"Malé","country":"MV","condition":"rain","is_day":false,"temperature":29,"wind_speed":31,"wind_direction":150,"cloud_cover":80,"precipitation":3}},
{"type":"Feature","id":209,"geometry":{"type":"Point","coordinates":[116.83,-1.25]},"properties":{"name":"Balikpapan","country":"ID","condition":"rain","is_day":false,"temperature":16,"wind_speed":17,"wind_direction":340,"cloud_cover":80,"precipitation":9.3}},
{"type":"Feature","id":210,"geometry":{"type":"Point","coordinates":[73.425,61.26]},"properties":{"name":"Surgut","country":"RU","condition":"partly-cloudy","is_day":false,"temperature":-10,"wind_speed":27,"wind_direction":100,"cloud_cover":61,"precipitation":0}},
{"type":"Feature","id":211,"geometry":{"type":"Point","coordinates":[-80.63,-5.21]},"properties":{"name":"Piura","country":"PE","condition":"overcast","is_day":true,"temperature":30,"wind_speed":2,"wind_direction":20,"cloud_cover":89,"precipitation":0}},
{"type":"Feature","id":212,"geometry":{"type":"Point","coordinates":[24.89,12.06]},"properties":{"name":"Nyala","country":"SD","condition":"thunderstorm","is_day":true,"temperature":29,"wind_speed":27,"wind_direction":30,"cloud_cover":80,"precipitation":15.9}},
{"type":"Feature","id":213,"geometry":{"type":"Point","coordinates":[39.293,-15.136]},"properties":{"name":"Nampula","country":"MZ","condition":"rain","is_day":true,"temperature":26,"wind_speed":15,"wind_direction":120,"cloud_cover":80,"precipitation":2.5}},
{"type":"Feature","id":214,"geometry":{"type":"Point","coordinates":[33.524,44.604]},"properties":{"name":"Sevastopol","country":"RU","condition":"partly-cloudy","is_day":false,"temperature":4,"wind_speed":25,"wind_direction":350,"cloud_cover":41,"precipitation":0}},
{"type":"Feature","id":215,"geometry":{"type":"Point","coordinates":[-15.43,28.1]},"properties":{"name":"Las Palmas","country":"ES","condition":"clear","is_day":true,"temperature":13,"wind_speed":11,"wind_direction":310,"cloud_cover":0,"precipitation":0}},
{"type":"Feature","id":216,"geometry":{"type":"Point","coordinates":[123.07,0.55]},"properties":{"name":"Gorontalo","country":"ID","condition":"rain","is_day":false,"temperature":15,"wind_speed":29,"wind_direction":190,"cloud_cover":81,"precipitation":9.7}},
{"type":"Feature","id":217,"geometry":{"type":"Point","coordinates":[-71.972,-13.525]},"properties":{"name":"Cusco","country":"PE","condition":"partly-cloudy","is_day":true,"temperature":9,"wind_speed":8,"wind_direction":30,"cloud_cover":40,"precipitation":0}},
{"type":"Feature","id":218,"geometry":{"type":"Point","coordinates":[-63.6,44.65]},"properties":{"name":"Halifax","country":"CA","condition":"overcast","is_day":true,"temperature":0,"wind_speed":23,"wind_direction":170,"cloud_cover":100,"precipitation":0}},
{"type":"Feature","id":219,"geometry":{"type":"Point","coordinates":[40.545,64.575]},"properties":{"name":"Archangel","country":"RU","condition":"partly-cloudy","is_day":false,"temperature":-10,"wind_speed":33,"wind_direction":100,"cloud_cover":35,"precipitation":0}},
{"type":"Feature","id":220,"geometry":{"type":"Point","coordinates":[128.2,-3.717]},"properties":{"name":"Ambon","country":"ID","condition":"rain","is_day":false,"temperature":16,"wind_speed":35,"wind_direction":20,"cloud_cover":88,"precipitation":10.7}},
{"type":"Feature","id":221,"geometry":{"type":"Point","coordinates":[6.73,0.337]},"properties":{"name":"São Tomé","country":"ST","condition":"partly-cloudy","is_day":true,"temperature":31,"wind_speed":16,"wind_direction":120,"cloud_cover":42,"precipitation":0}},
{"type":"Feature","id":222,"geometry":{"type":"Point","coordinates":[33.1,68.97]},"properties":{"name":"Murmansk","country":"RU","condition":"partly-cloudy","is_day":false,"temperature":-8,"wind_speed":20,"wind_direction":110,"cloud_cover":35,"precipitation":0}},
{"type":"Feature","id":223,"geometry":{"type":"Point","coordinates":[82.615,49.99]},"properties":{"name":"Oskemen","country":"KZ","condition":"overcast","is_day":false,"temperature":-7,"wind_speed":23,"wind_direction":40,"cloud_cover":97,"precipitation":0}},
{"type":"Feature","id":224,"geometry":{"type":"Point","coordinates":[-70.4,-23.65]},"properties":{"name":"Antofagasta","country":"CL","condition":"clear","is_day":true,"temperature":26,"wind_speed":5,"wind_direction":300,"cloud_cover":8,"precipitation":0}},
{"type":"Feature","id":225,"geometry":{"type":"Point","coordinates":[113.465,52.055]},"properties":{"name":"Chita","country":"RU","condition":"clear","is_day":false,"temperature":-22,"wind_speed":19,"wind_direction":80,"cloud_cover":21,"precipitation":0}},
{"type":"Feature","id":226,"geometry":{"type":"Point","coordinates":[-63.9,-8.75]},"properties":{"name":"Porto Velho","country":"BR","condition":"thunderstorm","is_day":true,"temperature":24,"wind_speed":36,"wind_direction":110,"cloud_cover":90,"precipitation":26.4}},
{"type":"Feature","id":227,"geometry":{"type":"Point","coordinates":[159.95,-9.438]},"properties":{"name":"Honiara","country":"SB","condition":"partly-cloudy","is_day":false,"temperature":28,"wind_speed":10,"wind_direction":140,"cloud_cover":79,"precipitation":0}},
{"type":"Feature","id":228,"geometry":{"type":"Point","coordinates":[33.43,-8.89]},"properties":{"name":"Mbeya","country":"TZ","condition":"thunderstorm","is_day":true,"temperature":25,"wind_speed":34,"wind_direction":140,"cloud_cover":80,"precipitation":16.4}},
{"type":"Feature","id":229,"geometry":{"type":"Point","coordinates":[-62.265,-38.74]},"properties":{"name":"Bahía Blanca","country":"AR","condition":"partly-cloudy","is_day":true,"temperature":17,"wind_speed":21,"wind_direction":270,"cloud_cover":38,"precipitation":0}},
{"type":"Feature","id":230,"geometry":{"type":"Point","coordinates":[57.17,50.28]},"properties":{"name":"Aqtobe","country":"KZ","condition":"partly-cloudy","is_day":false,"temperature":-4,"wind_speed":30,"wind_direction":160,"cloud_cover":71,"precipitation":0}},
{"type":"Feature","id":231,"geometry":{"type":"Point","coordinates":[-149.887,61.214]},"properties":{"name":"Anchorage","country":"US","condition":"clear","is_day":false,"temperature":-8,"wind_speed":15,"wind_direction":270,"cloud_cover":30,"precipitation":0}},
{"type":"Feature","id":232,"geometry":{"type":"Point","coordinates":[-171.769,-13.836]},"properties":{"name":"Apia","country":"WS","condition":"overcast","is_day":false,"temperature":19,"wind_speed":5,"wind_direction":110,"cloud_cover":86,"precipitation":0}},
{"type":"Feature","id":233,"geometry":{"type":"Point","coordinates":[-68.06,-38.95]},"properties":{"name":"Neuquén","country":"AR","condition":"clear","is_day":true,"temperature":16,"wind_speed":17,"wind_direction":270,"cloud_cover":30,"precipitation":0}},
{"type":"Feature","id":234,"geometry":{"type":"Point","coordinates":[129.735,62.035]},"properties":{"name":"Yakutsk","country":"RU","condition":"snow","is_day":false,"temperature":-34,"wind_speed":21,"wind_direction":70,"cloud_cover":80,"precipitation":1.1}},
{"type":"Feature","id":235,"geometry":{"type":"Point","coordinates":[-60.666,2.816]},"properties":{"name":"Boa Vista","country":"BR","condition":"partly-cloudy","is_day":true,"temperature":24,"wind_speed":31,"wind_direction":300,"cloud_cover":35,"precipitation":0}},
{"type":"Feature","id":236,"geometry":{"type":"Point","coordinates":[119.7,49.2]},"properties":{"name":"Hailar","country":"CN","condition":"clear","is_day":false,"temperature":-23,"wind_speed":17,"wind_direction":100,"cloud_cover":14,"precipitation":0}},
{"type":"Feature","id":237,"geometry":{"type":"Point","coordinates":[-54.7,-2.433]},"properties":{"name":"Santarém","country":"BR","condition":"thunderstorm","is_day":true,"temperature":24,"wind_speed":32,"wind_direction":130,"cloud_cover":80,"precipitation":21.9}},
{"type":"Feature","id":238,"geometry":{"type":"Point","coordinates":[59.615,42.47]},"properties":{"name":"Nukus","country":"UZ","condition":"partly-cloudy","is_day":false,"temperature":-1,"wind_speed":21,"wind_direction":230,"cloud_cover":78,"precipitation":0}},
{"type":"Feature","id":239,"geometry":{"type":"Point","coordinates":[127.533,50.267]},"properties":{"name":"Blagoveshchensk","country":"RU","condition":"snow","is_day":false,"temperature":-29,"wind_speed":28,"wind_direction":130,"cloud_cover":80,"precipitation":0.4}},
{"type":"Feature","id":240,"geometry":{"type":"Point","coordinates":[91.1,29.645]},"properties":{"name":"Lhasa","country":"CN","condition":"clear","is_day":false,"temperature":-13,"wind_speed":12,"wind_direction":310,"cloud_cover":7,"precipitation":0}}
]}
